X,Y,TOWNNAME,LONGITUDE,LATITUDE,ISCENTER,icon_url
14.7998854429656,-8.66702823609398,Bula Atumba,14.8000,-8.6670,District,./0.png
20.3998967977186,-9.65003190237542,Saurimo,20.4000,-9.6500,Province,./0.png
19.9168950200189,-11.783036168856,Luena,19.9170,-11.7830,Province,./0.png
14.2498849832782,-6.26702347750599,Mbanza Kongo,14.2500,-6.2670,Province,./0.png
18.0828909388462,-12.150036210749,Kuemba,18.0830,-12.1500,District,./0.png
17.7168907098232,-10.7330332436385,Lukembo,17.7170,-10.7330,District,./0.png
12.8668820828349,-7.23302497611771,Nzeto,12.8670,-7.2330,District,./0.png
12.3668813968558,-6.13302280697371,Soyo,12.3670,-6.1330,District,./0.png
15.0998866988172,-6.06702327303025,Maquela do Zombo,15.1000,-6.0670,District,./0.png
15.5168853825236,-12.6830361889656,Ekunha,15.5170,-12.6830,District,./0.png
16.0168872750641,-10.5170322148533,Mussende,16.0170,-10.5170,District,./0.png
18.6328933620688,-8.4330288713079,Kaungula,18.6330,-8.4330,District,./0.png
17.4828897283665,-12.0170357092735,Kamakupa,17.4830,-12.0170,District,./0.png
19.1828919237389,-15.1670427091047,Kuito Kuanavale,19.1830,-15.1670,District,./0.png
20.8098982982381,-7.34702714623551,Chitato,20.8100,-7.3470,District,./0.png
16.429557369896,-9.79056493530839,Kangandala,16.4297,-9.7905,District,./0.png
13.249880154312,-14.1170378002361,Kamukuio,13.2500,-14.1170,District,./0.png
21.4328974099078,-14.1000415602422,Lumbala-Nguimbo,21.4330,-14.1000,District,./0.png
14.632885766185,-6.11702327119012,Kuimba,14.6330,-6.1170,District,./0.png
22.0328976892551,-16.3330464502122,Rivungo,22.0330,-16.3330,District,./0.png
16.9668888709417,-11.4670344240425,Nharea,16.9670,-11.4670,District,./0.png
20.1668956945986,-11.4330355377866,Kamanongue,20.1670,-11.4330,District,./0.png
17.0168900108846,-8.36702829104246,Marimba,17.0170,-8.3670,District,./0.png
22.2329005065139,-10.7000346947097,Luau,22.2330,-10.7000,District,./0.png
18.0828914190906,-10.9000337078879,Karima,18.0830,-10.9000,District,./0.png
19.8668941265633,-13.6830400340307,Kangamba,19.8670,-13.6830,District,./0.png
14.2998849078747,-7.01702492990153,Bembe,14.3000,-7.0170,District,./0.png
16.3328871126285,-12.55003628193,Chinguar,16.3330,-12.5500,District,./0.png
13.9168834203465,-9.55002963540094,Muxima,13.9170,-9.5500,District,./0.png
13.4328834876236,-5.85002250554405,Noqui,13.4330,-5.8500,District,./0.png
20.7498979070482,-8.41702940359325,Lukapa,20.7500,-8.4170,Province,./0.png
20.4498962330638,-11.6500360891049,Leua,20.4500,-11.6500,District,./0.png
13.6668832437802,-8.58302773368506,Caxito,13.6670,-8.5830,Province,./0.png
13.9854542568479,-10.3905912404891,Porto Amboim,13.9856,-10.3906,District,./0.png
17.2828892550529,-12.1500358920617,Katabola,17.2830,-12.1500,District,./0.png
14.4668847691459,-8.717028231141,Pango-Aluquem,14.4670,-8.7170,District,./0.png
16.4998887808936,-8.95002930005132,Kiuaba-Nzoji,16.5000,-8.9500,District,./0.png
13.368292604206,-8.77993801151019,Cacuaco,13.3684,-8.7799,District,./0.png
21.2498991639675,-7.7500281087773,Kambulo,21.2500,-7.7500,District,./0.png
21.6498990352222,-11.2170356025184,Luakano,21.6500,-11.2170,District,./0.png
14.5998850969739,-8.50002785580388,Kibaxe,14.6000,-8.5000,District,./0.png
21.3168985061826,-10.6000341875856,Mukonda,21.3170,-10.6000,District,./0.png
16.9328884273511,-12.3830362070775,Kuito,16.9330,-12.3830,Province,./0.png
13.1168823954633,-7.85002619681956,Ambriz,13.1170,-7.8500,District,./0.png
15.0828863906978,-7.26702560777402,Mucaba,15.0830,-7.2670,District,./0.png
18.9828908207449,-16.417045083821,Nancova,18.9830,-16.4170,District,./0.png
13.2998830200918,-6.80002427247753,Tomboco,13.3000,-6.8000,District,./0.png
13.6828831126385,-9.1000287116225,Catete,13.6830,-9.1000,District,./0.png
18.4328926539514,-9.41703082421538,Kapenda Kamulemba,18.4330,-9.4170,District,./0.png
20.3498941703374,-15.8000445436149,Mavinga,20.3500,-15.8000,District,./0.png
17.0668899600475,-8.90002937031349,Kunda-ia-Baze,17.0670,-8.9000,District,./0.png
15.8998881520374,-6.73302475794538,Buengas,15.9000,-6.7330,District,./0.png
16.6998883117136,-11.4830343532787,Andulo,16.7000,-11.4830,District,./0.png
14.2828845839319,-8.11702703101543,Muxaluando,14.2830,-8.1170,District,./0.png
19.5328953285668,-8.233028698851,Kuilo,19.5330,-8.2330,District,./0.png
20.7880830100904,-11.5553100134569,Lumeje Kameia,20.7882,-11.5553,District,./0.png
13.3691025672114,-8.90219824053692,Viana,13.3692,-8.9022,District,./0.png
17.5498905919585,-10.0670318545076,Kambundi-Katembo,17.5500,-10.0670,District,./0.png
19.2668942000414,-10.1330325509717,Kakolo,19.2670,-10.1330,District,./0.png
16.7828881789316,-12.2330358525398,Kunhinga,16.7830,-12.2330,District,./0.png
20.1998959098259,-11.0330347208219,Dala,20.2000,-11.0330,District,./0.png
22.9169016324211,-11.9000374935674,Alto Zambeze,22.9170,-11.9000,District,./0.png
12.1910532030724,-5.56694229610737,Cabinda,0.0000,0.0000,Province,./0.png
15.3257207748623,-4.32724224476109,Kinshasa,0.0000,0.0000,Country Capital,./0.png
15.7012722775065,-17.7970181535888,Oshakati,0.0000,0.0000,Province,./0.png
22.402901523174,-5.89202414071274,Kananga,0.0000,0.0000,Province,./0.png
23.6666052727826,-6.15002493416635,Mbuji-Mayi,0.0000,0.0000,Province,./0.png
23.1319011776974,-15.2770455761509,Mongu,0.0000,0.0000,Province,./0.png
12.7632822790237,-4.64675295333343,Belize,0.0000,0.0000,District,./0.png
12.5498820075324,-4.76668729440146,Buco Zau,0.0000,0.0000,District,./0.png
12.1332141403623,-5.23335408855124,Cacongo,0.0000,0.0000,District,./0.png
13.2348817853096,-8.81202785024394,Luanda,0.0000,0.0000,Country Capital,./0.png
11.8595301342947,-4.80741506684143,Pointe Noire,0.0000,0.0000,No,./0.png
18.7879498440727,-5.03113311038014,Kikwit,0.0000,0.0000,No,./0.png
22.647398834681,-14.9975443782368,Kalabo,0.0000,0.0000,No,./0.png
19.72303036704,-17.9552982971537,Rundu,0.0000,0.0000,Province,./0.png
15.6519474185712,-7.69199658388403,Puri,15.6521,-7.6920,District,./0.png
14.645635480026,-7.44446583945348,Ambuila,14.6458,-7.4444,District,./0.png
14.8490559046516,-7.35577572058532,Songo,14.8492,-7.3557,District,./0.png
15.2668866272708,-7.76919663230517,Negage,15.2670,-7.7692,District,./0.png
15.3834369463556,-7.43808601738098,Bungo,15.3836,-7.4381,District,./0.png
15.1288066230603,-6.67738447081033,Damba,15.1289,-6.6774,District,./0.png
15.8492477409536,-7.97169718547748,Alto Cauale,15.8494,-7.9717,District,./0.png
16.1659985510122,-7.31521597325811,Sanza Pombo,16.1661,-7.3152,District,./0.png
15.0462861414981,-7.94041690486567,Quitexe,15.0464,-7.9404,District,./0.png
16.2129688299992,-6.52591441821414,Quimbele,16.2131,-6.5259,District,./0.png
16.1340785661927,-6.98455531045853,Milunga (Macocola),16.1342,-6.9845,District,./0.png
15.0562762484666,-7.61577627820211,Uige,15.0564,-7.6158,Province,./0.png
14.9105754638296,-9.30330949307201,Ndalatando,14.9107,-9.3033,Province,./0.png
15.2502761538058,-9.26708953218169,Lucala,15.2504,-9.2671,District,./0.png
14.7886952742047,-9.13938913956314,Golungo Alto,14.7888,-9.1394,District,./0.png
14.4233243689099,-9.68947006988842,Dondo,14.4234,-9.6894,District,./0.png
15.3733567242068,-8.19146748334029,Camabatela,15.3735,-8.1914,District,./0.png
15.3103265038739,-8.51905810190471,Quiculungo,15.3104,-8.5190,District,./0.png
15.2480763954338,-8.46433797752791,Bolongongo,15.2482,-8.4643,District,./0.png
15.169466159522,-8.72996846872093,Banga,15.1696,-8.7299,District,./0.png
15.405746623019,-8.7607785995732,Samba Caju,15.4059,-8.7607,District,./0.png
14.7265252227151,-8.91119868249646,Gonguembo,14.7266,-8.9112,District,./0.png
13.8554426745203,-11.2361427735988,Sumbe,13.8556,-11.2361,Province,./0.png
13.7549426767547,-10.7297017898488,Porto Amboim,13.7551,-10.7297,District,./0.png
14.3349638521917,-10.6414718414533,Quilenda,14.3351,-10.6414,District,./0.png
14.3687138384198,-10.8528622530047,Gabela,14.3688,-10.8528,District,./0.png
14.8932751944858,-10.0000908227938,Calulo,14.8934,-10.0001,District,./0.png
14.9816351036476,-10.7360022606581,Quibala,14.9818,-10.7360,District,./0.png
14.2887734616442,-11.4044732603027,Vila Nova Seles,14.2889,-11.4044,District,./0.png
14.336573674101,-11.1108127268548,Conda,14.3367,-11.1108,District,./0.png
15.0548248065949,-11.8528444156055,Cassongue,15.0549,-11.8528,District,./0.png
15.1183551335284,-11.3658435142203,Wacu Kungu,15.1185,-11.3658,District,./0.png
14.6932744090617,-11.0448627395825,Ebo,14.6934,-11.0448,District,./0.png
16.3515782895644,-9.55025043729299,Malanje,16.3517,-9.5502,Province,./0.png
15.7421070923877,-9.42441999487156,Cacuso,15.7422,-9.4244,District,./0.png
15.9552476291787,-9.09174941256853,Calandula,15.9554,-9.0917,District,./0.png
17.0718598589176,-9.2661401020635,Quela,17.0720,-9.2661,District,./0.png
16.5193288968981,-8.69416879959484,Kahombo,16.5194,-8.6941,District,./0.png
16.3437187255713,-8.03330744144429,Massango,16.3438,-8.0333,District,./0.png
16.8546093421264,-9.48467046858756,Caculama,16.8547,-9.4846,District,./0.png
16.0859981427138,-8.25002779829347,Kiwaba Nzonji,16.0861,-8.2500,District,./0.png
18.0438319176406,-9.14725015867578,Cuango,18.0439,-9.1472,District,./0.png
17.810861315296,-9.51920083878185,Xa Muteba,17.8110,-9.5192,District,./0.png
13.4009912044499,-12.5791150673954,Benguela,13.4011,-12.5791,Province,./0.png
13.1979407919648,-12.612845038699,Baia Farta,13.1981,-12.6128,District,./0.png
13.55324161155,-12.3395346937944,Lobito,13.5534,-12.3395,District,./0.png
14.2480726637813,-13.0400962990158,Cubal,14.2482,-13.0401,District,./0.png
14.6336934442085,-13.0200064358146,Ganda,14.6338,-13.0200,District,./0.png
14.7703040193546,-12.3554552476974,Balombo,14.7704,-12.3554,District,./0.png
14.1366527033275,-12.4720951930791,Bocoio,14.1368,-12.4721,District,./0.png
14.0008821807948,-13.0221461534167,Caimbambo,14.0010,-13.0221,District,./0.png
13.941601795999,-13.5753971472084,Chongoroi,13.9417,-13.5754,District,./0.png
15.7347757845346,-12.7774264634208,Huambo,15.7349,-12.7774,Province,./0.png
16.0465764873301,-12.6328463202588,Tchikala Tcholohanga,16.0467,-12.6328,District,./0.png
16.2236368798663,-12.5676762698815,Katchiungo,16.2237,-12.5676,District,./0.png
15.8561362872939,-12.1941153966513,Bailundo,15.8562,-12.1941,District,./0.png
15.5534153811348,-12.8515365258445,Caala,15.5535,-12.8515,District,./0.png
15.0660543883793,-12.8603363283635,Ukuma,15.0662,-12.8603,District,./0.png
15.2463847315809,-12.9078464978318,Longonjo,15.2465,-12.9078,District,./0.png
16.2214471842011,-11.8374248564717,Mungo,16.2216,-11.8374,District,./0.png
15.3108251560164,-12.2464252697673,Londuimbali,15.3109,-12.2464,District,./0.png
14.9340741380946,-12.8252562039434,Tchinjenje,14.9342,-12.8252,District,./0.png
16.7557475524804,-13.5171483376974,Chitembo,16.7559,-13.5171,District,./0.png
17.6892189614729,-14.6622309972971,Menongue,17.6893,-14.6622,Province,./0.png
18.6222493368099,-17.6074372143269,Cuangar,18.6224,-17.6074,District,./0.png
16.8926972829585,-14.6532105958857,Cuchi,16.8928,-14.6532,District,./0.png
20.7772539105186,-17.984439152466,Dirico,20.7774,-17.9844,District,./0.png
19.7712017053059,-17.8895484082359,Calai,19.7713,-17.8895,District,./0.png
12.1405473982752,-15.197759151582,Namibe,12.1407,-15.1977,Province,./0.png
11.8568464948081,-15.7996000475478,Tombua,11.8570,-15.7996,District,./0.png
12.9485186657925,-15.7266505329134,Virei,12.9486,-15.7266,District,./0.png
13.3523800121267,-14.7607090170887,Bibala,13.3525,-14.7607,District,./0.png
13.4896001966469,-14.9186493743313,Lubango,13.4897,-14.9186,Province,./0.png
14.1193016806292,-14.4927289213797,Cacula,14.1194,-14.4927,District,./0.png
13.6890504436375,-15.1861499641708,Chibia,13.6892,-15.1861,District,./0.png
15.0602439631749,-13.7327079684033,Caconda,15.0604,-13.7327,District,./0.png
14.6866631804323,-13.7890378970293,Caluquembe,14.6868,-13.7890,District,./0.png
14.0740518074768,-14.0760681328551,Quilengues,14.0742,-14.0760,District,./0.png
16.2934161271801,-14.4656799455665,Kuvango,16.2935,-14.4656,District,./0.png
14.5495223673427,-14.8253197524584,Quipungo,14.5496,-14.8253,District,./0.png
15.0308833883355,-14.7405998398425,Matala,15.0310,-14.7406,District,./0.png
14.9137734646333,-14.1364786545543,Chicomba,14.9139,-14.1364,District,./0.png
16.032195468875,-14.692430249355,Jamba,16.0323,-14.6924,District,./0.png
15.7879954068646,-13.8168484688103,Chipindo,15.7881,-13.8168,District,./0.png
13.8903005324582,-15.7330110643521,Tchiange,13.8904,-15.7330,District,./0.png
13.3748799182318,-15.0111194811231,Humpata,13.3750,-15.0111,District,./0.png
15.725243478673,-17.0672945429194,Ondjiva,15.7254,-17.0673,Province,./0.png
14.9735521245533,-16.7428235132338,Xangongo,14.9737,-16.7428,District,./0.png
15.8064644790173,-15.6588519584486,Cuvelai,15.8066,-15.6588,District,./0.png
13.4232990440789,-16.6502924504117,Oncocua,13.4234,-16.6503,District,./0.png
15.8406335719648,-17.3034350478336,Namacunde,15.8408,-17.3034,District,./0.png
14.3066610438354,-16.284852297968,Cahama,14.3068,-16.2848,District,./0.png
15.4274718496112,-11.1297501817871,Sanga,15.4276,-11.1297,Subdistrict,./0.png
20.9828983313137,-8.7330301352187,Sombo,20.9830,-8.7330,Subdistrict,./0.png
17.0998893187615,-11.0170335865398,Lubia,17.1000,-11.0170,Subdistrict,./0.png
14.1328836226979,-10.1830309031153,Mumbondo,14.1330,-10.1830,Subdistrict,./0.png
15.4828865884224,-9.36702980006652,Kizenga,15.4830,-9.3670,Subdistrict,./0.png
13.3668826976383,-8.46702742497332,Barra do Dande,13.3670,-8.4670,Subdistrict,./0.png
23.5499031856533,-11.5500369541256,Luvua,23.5500,-11.5500,Subdistrict,./0.png
21.3328991979848,-8.35002941174492,Kachimo,21.3330,-8.3500,Subdistrict,./0.png
17.0168896557605,-9.5500306499641,Kaxinga,17.0170,-9.5500,Subdistrict,./0.png
21.3828969683236,-14.8170430213647,Ninda,21.3830,-14.8170,Subdistrict,./0.png
15.6498853946802,-13.2500373273584,Kuima,15.6500,-13.2500,Subdistrict,./0.png
13.58288109853,-13.5500369301542,Bolonguela,13.5830,-13.5500,Subdistrict,./0.png
14.0828847392582,-5.88002269815978,Luvu,14.0830,-5.8800,Subdistrict,./0.png
15.7168876737778,-7.20002563476367,Cuilo,15.7170,-7.2000,Subdistrict,./0.png
21.3828975669902,-13.4830402577079,Lutembo,21.3830,-13.4830,Subdistrict,./0.png
14.7828860078806,-6.36702378862678,Kanda,14.7830,-6.3670,Subdistrict,./0.png
13.6998809642372,-14.2670382976093,Dinde,13.7000,-14.2670,Subdistrict,./0.png
18.4498920921685,-11.1830344093408,Sautari,18.4500,-11.1830,Subdistrict,./0.png
18.2828921020403,-10.1500322641845,Kitapa,18.2830,-10.1500,Subdistrict,./0.png
14.4998826311269,-14.1330384465464,Ngola,14.5000,-14.1330,Subdistrict,./0.png
17.1168890710714,-11.7500350387619,Gamba,17.1170,-11.7500,Subdistrict,./0.png
17.9668891201867,-15.5000427676839,Kueio,17.9670,-15.5000,Subdistrict,./0.png
14.9025270147867,-16.6843003653057,Humbe,14.9026,-16.6843,Subdistrict,./0.png
20.8168967072972,-12.5170380254454,Lukusse,20.8170,-12.5170,Subdistrict,./0.png
16.1187443255143,-10.9428380801114,Sao Lucas,16.1189,-10.9428,Subdistrict,./0.png
20.3828937432019,-16.73304643738,Luengue,20.3830,-16.7330,Subdistrict,./0.png
15.3668829504506,-16.7170436896242,Mungua,15.3670,-16.7170,Subdistrict,./0.png
14.3498846580165,-8.31702743222775,Kaje,14.3500,-8.3170,Subdistrict,./0.png
20.2168967730366,-8.33302908709479,Kapaia,20.2170,-8.3330,Subdistrict,./0.png
14.8668837177307,-13.4330373159398,Chikuma,14.8670,-13.4330,Subdistrict,./0.png
13.649883609145,-7.15002502103149,Kindeji,13.6500,-7.1500,Subdistrict,./0.png
17.1998900870828,-9.3830303749256,Xandele,17.2000,-9.3830,Subdistrict,./0.png
20.6998969905851,-11.0670349633447,Kazage,20.7000,-11.0670,Subdistrict,./0.png
13.0328822985773,-7.61702573779191,Mussera,13.0330,-7.6170,Subdistrict,./0.png
16.699889870598,-6.28302403873329,Kuango,16.7000,-6.2830,Subdistrict,./0.png
17.666891103619,-9.233030218125,Iongo,17.6670,-9.2330,Subdistrict,./0.png
17.3998890547539,-13.1830379711779,Mutumbo,17.4000,-13.1830,Subdistrict,./0.png
19.0498936915915,-10.2670327550092,Kukumbi,19.0500,-10.2670,Subdistrict,./0.png
14.2828825453869,-13.4330370446571,Kapupa,14.2830,-13.4330,Subdistrict,./0.png
21.53289683433,-15.7830450788261,Neriquinha,21.5330,-15.7830,Subdistrict,./0.png
16.9498871975567,-15.050041387762,Chinguanja,16.9500,-15.0500,Subdistrict,./0.png
13.3498827536015,-8.16702685731858,Tabi,13.3500,-8.1670,Subdistrict,./0.png
16.9168892215228,-10.2330319716383,Mbembo,16.9170,-10.2330,Subdistrict,./0.png
17.4668879438485,-15.7000429016722,Kaiundo,17.4670,-15.7000,Subdistrict,./0.png
18.5498919247605,-12.1670364287214,Munhango,18.5500,-12.1670,Subdistrict,./0.png
20.1498939481279,-15.3670435731537,Kunjamba/ Dima,20.1500,-15.3670,Subdistrict,./0.png
12.9668824412698,-6.55002372270109,Kinzau,12.9670,-6.5500,Subdistrict,./0.png
17.832891659695,-8.51702882119269,Luremo,17.8330,-8.5170,Subdistrict,./0.png
17.5668903107545,-10.9670336570725,Kimbango,17.5670,-10.9670,Subdistrict,./0.png
19.7668948982016,-11.2330349827811,Luma-Kassai,19.7670,-11.2330,Subdistrict,./0.png
17.3668888254043,-13.5330386421384,Soma Kwanza,17.3670,-13.5330,Subdistrict,./0.png
17.6668901216672,-12.0000357482129,Kwanza,17.6670,-12.0000,Subdistrict,./0.png
21.182896367706,-15.133043580756,Chiume,21.1830,-15.1330,Subdistrict,./0.png
15.3168870370978,-6.50002416711211,Kamatambo,15.3170,-6.5000,Subdistrict,./0.png
15.2498862114969,-9.08302917626671,Kiangombe,15.2500,-9.0830,Subdistrict,./0.png
18.6668905325711,-15.6830434775473,Baixo Longa,18.6670,-15.6830,Subdistrict,./0.png
16.1998888731822,-6.20002376716805,Icoca,16.2000,-6.2000,Subdistrict,./0.png
12.3828783843585,-14.2670376322342,Bentiaba,12.3830,-14.2670,Subdistrict,./0.png
20.0168958843552,-9.91703234245736,Mona-Kimbundo,20.0170,-9.9170,Subdistrict,./0.png
18.8668920662288,-13.4330391002619,Tempue,18.8670,-13.4330,Subdistrict,./0.png
14.5168851094234,-7.88302664855837,Kipedro,14.5170,-7.8830,Subdistrict,./0.png
15.7498840711575,-16.1670428801359,Mupa,15.7500,-16.1670,Subdistrict,./0.png
15.9668884509869,-5.96702325584495,Sakandika,15.9670,-5.9670,Subdistrict,./0.png
12.9668825811882,-5.91702253386967,Pedra de Feitico,12.9670,-5.9170,Subdistrict,./0.png
20.4168950328987,-14.3500416322377,Muie,20.4170,-14.3500,Subdistrict,./0.png
14.5998855448904,-6.81702461760738,Lukunga,14.6000,-6.8170,Subdistrict,./0.png
20.3498954466526,-13.0830390095583,Kassamba,20.3500,-13.0830,Subdistrict,./0.png
23.7499032740511,-12.5830392583042,Macondo,23.7500,-12.5830,Subdistrict,./0.png
19.1498936762235,-10.9330341506346,Alto-Chikapa,19.1500,-10.9330,Subdistrict,./0.png
16.8168874899048,-13.9170391392748,Malengue,16.8170,-13.9170,Subdistrict,./0.png
13.0998828176712,-6.00002271857506,Lufiko,13.1000,-6.0000,Subdistrict,./0.png
14.4168847309316,-8.51702783399636,Piri,14.4170,-8.5170,Subdistrict,./0.png
12.7668819843053,-6.86702426757069,Kinzau,12.7670,-6.8670,Subdistrict,./0.png
14.4998827658395,-13.8670379529504,Kalopi,14.5000,-13.8670,Subdistrict,./0.png
19.1998934041839,-11.9500362412869,Kangumbe,19.2000,-11.9500,Subdistrict,./0.png
17.3668899964107,-10.6830330204517,Kapunda,17.3670,-10.6830,Subdistrict,./0.png
20.3998931682354,-17.8000485781198,Xamavera,20.4000,-17.8000,Subdistrict,./0.png
12.5328788852807,-13.867036993772,Lucira,12.5330,-13.8670,Subdistrict,./0.png
14.9498849198722,-11.0500328474181,Kassanje,14.9500,-11.0500,Subdistrict,./0.png
13.7668837763667,-7.38302549301606,Kindeji,13.7670,-7.3830,Subdistrict,./0.png
19.5998930999709,-14.6330418363112,Lupiri,19.6000,-14.6330,Subdistrict,./0.png
15.1000456828706,-12.3550863872807,Ussoke Sede,15.1002,-12.3551,Subdistrict,./0.png
14.1498843137776,-8.15002705598172,Kanakassala,14.1500,-8.1500,Subdistrict,./0.png
15.8328863975939,-11.817034661686,Bimbe,15.8330,-11.8170,Subdistrict,./0.png
17.0668885268753,-12.8000370784036,Chicala,17.0670,-12.8000,Subdistrict,./0.png
21.9168984538283,-14.2000419743654,Mussuma,21.9170,-14.2000,Subdistrict,./0.png
15.0828855617509,-10.0330309514953,Kissongo,15.0830,-10.0330,Subdistrict,./0.png
17.2498894855909,-11.4000343992828,Kaiei,17.2500,-11.4000,Subdistrict,./0.png
14.1168816719162,-14.500038933585,Cacula,14.1170,-14.5000,Subdistrict,./0.png
14.0328835444677,-9.85003024026213,Demba Chio,14.0330,-9.8500,Subdistrict,./0.png
21.5668998894404,-7.61702789812779,Kanzar,21.5670,-7.6170,Subdistrict,./0.png
14.9168861627864,-6.85002475700093,Pete-Cusso,14.9170,-6.8500,Subdistrict,./0.png
13.9668808871893,-15.3830404700717,Kihita,13.9670,-15.3830,Subdistrict,./0.png
15.5711248448807,-14.0543178165567,Bambi,15.5712,-14.0543,Subdistrict,./0.png
19.0498908552041,-16.6170455124069,Rito,19.0500,-16.6170,Subdistrict,./0.png
14.8828821573032,-16.3830428011551,Mukope,14.8830,-16.3830,Subdistrict,./0.png
15.5926015471587,-10.1451813441291,Kienha,15.5927,-10.1451,Subdistrict,./0.png
15.0828834181645,-14.8830401317226,Kapelongo,15.0830,-14.8830,Subdistrict,./0.png
14.2168840978406,-9.28302922988094,Zenza do Itombe,14.2170,-9.2830,Subdistrict,./0.png
21.4328953837977,-18.0170495750659,Mucusso,21.4330,-18.0170,Subdistrict,./0.png
21.7998999130049,-9.50003199663642,Chiluage,21.8000,-9.5000,Subdistrict,./0.png
17.2168890684873,-12.2670360956642,Chipeta,17.2170,-12.2670,Subdistrict,./0.png
16.9585150850824,-7.6398028197339,Cinguengue,16.9586,-7.6398,Subdistrict,./0.png
17.3328892058118,-12.517036634759,Cambendua,17.3330,-12.5170,Subdistrict,./0.png
13.4998835056194,-6.36702350070928,Lufiko,13.5000,-6.3670,Subdistrict,./0.png
14.7328837754361,-12.7330359418252,Ebanga,14.7330,-12.7330,Subdistrict,./0.png
14.0498843695681,-7.21702525007486,Mabaia,14.0500,-7.2170,Subdistrict,./0.png
15.3168870370978,-6.50002416711211,Kamatambo,15.3170,-6.5000,Subdistrict,./0.png
18.9168939900959,-8.33302874259337,Kamaxilo,18.9170,-8.3330,Subdistrict,./0.png
13.9234831381783,-16.5023614743283,Otchinjau,13.9236,-16.5023,Subdistrict,./0.png
16.0998860571874,-13.8000385821165,Galangue,16.1000,-13.8000,Subdistrict,./0.png
15.1998832341315,-15.6500416201167,Mulondo,15.2000,-15.6500,Subdistrict,./0.png
22.999900360289,-17.3830490974532,Luiana,23.0000,-17.3830,Subdistrict,./0.png
23.5329033289502,-11.0000357550659,Kaianda,23.5330,-11.0000,Subdistrict,./0.png
19.1328940260154,-9.78303178926616,Xinge,19.1330,-9.7830,Subdistrict,./0.png
16.1998873479868,-11.3170338380475,Kalucinga,16.2000,-11.3170,Subdistrict,./0.png
23.4669027998414,-12.1170381520891,Kalunda,23.4670,-12.1170,Subdistrict,./0.png
20.132895143115,-12.6670380681907,Lutuai ou Muangai,20.1330,-12.6670,Subdistrict,./0.png
21.2168985080682,-9.90003267574295,Murieje,21.2170,-9.9000,Subdistrict,./0.png
16.6328876529516,-12.7330367635671,Kangote,16.6330,-12.7330,Subdistrict,./0.png
15.4668852056577,-12.8500364851112,Kalenga,15.4670,-12.8500,Subdistrict,./0.png
15.5498856466559,-12.2330353441389,Alto - Uama,15.5500,-12.2330,Subdistrict,./0.png
14.0498845600646,-6.41702372063613,Kiende,14.0500,-6.4170,Subdistrict,./0.png
14.6328846647693,-10.033030795242,Munenga,14.6330,-10.0330,Subdistrict,./0.png
14.6454055337207,-10.4652396217114,Ndala Kachibo,14.6455,-10.4652,Subdistrict,./0.png
15.5498862165924,-10.8170326262627,Lonhe,15.5500,-10.8170,Subdistrict,./0.png
18.482890690722,-14.6000412513083,Longa,18.4830,-14.6000,Subdistrict,./0.png
15.0998846847536,-12.3500353776397,Ussoke,15.1000,-12.3500,Subdistrict,./0.png
15.5890237027206,-9.66973442173008,Pungo-Andongo,15.5891,-9.6697,Subdistrict,./0.png
20.8998956845848,-15.2330436545814,Kutuile,20.9000,-15.2330,Subdistrict,./0.png
22.3356905606353,-11.2277938563332,Lago-Dilolo,22.3358,-11.2278,Subdistrict,./0.png
15.6498860934051,-11.650034267465,Hengue,15.6500,-11.6500,Subdistrict,./0.png
12.8168792540143,-14.2170377632908,Chingo,12.8170,-14.2170,Subdistrict,./0.png
15.9693429736271,-15.3757675107101,Lukene,15.9695,-15.3757,Subdistrict,./0.png
15.5998858400495,-12.0170349514377,Luvemba,15.6000,-12.0170,Subdistrict,./0.png
15.7328848990581,-14.6000399265228,Dongo,15.7330,-14.6000,Subdistrict,./0.png
15.8907041412573,-16.5447166634284,Evale,15.8908,-16.5447,Subdistrict,./0.png
13.8558810427685,-14.702039170599,Hoque,13.8560,-14.7020,Subdistrict,./0.png
21.9668999518636,-10.5830343600503,Kassai-Sul,21.9670,-10.5830,Subdistrict,./0.png
13.8328836462646,-8.31702728106735,Kikabo,13.8330,-8.3170,Subdistrict,./0.png
16.5998882406773,-11.1330336300376,Kassumbe,16.6000,-11.1330,Subdistrict,./0.png
15.2328852287431,-11.7000341968087,Pambangala,15.2330,-11.7000,Subdistrict,./0.png
14.049884207114,-7.83302642428898,Zala,14.0500,-7.8330,Subdistrict,./0.png
16.4998866065671,-14.3670398563762,Kutato,16.5000,-14.3670,Subdistrict,./0.png
13.7328819073551,-12.4670350074269,Biopio,13.7330,-12.4670,Subdistrict,./0.png
15.4168848485838,-13.4000375064861,Katata,15.4170,-13.4000,Subdistrict,./0.png
15.7328878868161,-6.41702409647278,Kuilo Futa,15.7330,-6.4170,Subdistrict,./0.png
17.5498909845546,-8.8170293459683,Milando,17.5500,-8.8170,Subdistrict,./0.png
14.682881242562,-17.2000441800817,Naulila,14.6830,-17.2000,Subdistrict,./0.png
12.7328820186295,-6.45002348077186,Kelo,12.7330,-6.4500,Subdistrict,./0.png
18.5498895222729,-17.0330460585927,Bondo,18.5500,-17.0330,Subdistrict,./0.png
19.2998912339872,-16.9170462354198,Maue,19.3000,-16.9170,Subdistrict,./0.png
12.6168818658205,-6.15002289422413,Sumba,12.6170,-6.1500,Subdistrict,./0.png
14.1668841995325,-8.65002801228647,Ucua,14.1670,-8.6500,Subdistrict,./0.png
15.3187369519445,-6.88849492756329,Sosso,15.3188,-6.8885,Subdistrict,./0.png
20.1668969103381,-7.33302696906501,Luvua,20.1670,-7.3330,Subdistrict,./0.png
15.3328858658707,-10.5830320964536,Kariango,15.3330,-10.5830,Subdistrict,./0.png
16.9168901004448,-7.23302599382065,Massau,16.9170,-7.2330,Subdistrict,./0.png
16.4845166739002,-9.1960907814837,Mufuma,16.4846,-9.1961,Subdistrict,./0.png
16.6498892996593,-8.21702788993105,Kabombo,16.6500,-8.2170,Subdistrict,./0.png
21.16689726001,-13.06703930524,Luvuei,21.1670,-13.0670,Subdistrict,./0.png
14.3498851234057,-6.51702398090685,Madimba,14.3500,-6.5170,Subdistrict,./0.png
14.6668844318076,-10.8500323601299,Konda,14.6670,-10.8500,Subdistrict,./0.png
16.368882644733,-8.5058483833696,Micanda,16.3690,-8.5058,Subdistrict,./0.png
13.7498816788836,-13.0330360590346,Katengue,13.7500,-13.0330,Subdistrict,./0.png
15.1998843513319,-13.5170376278047,Kusse,15.2000,-13.5170,Subdistrict,./0.png
21.1337739932423,-7.39186731572467,Luachimo,21.1339,-7.3918,Subdistrict,./0.png
14.5498856446019,-5.91702286639113,Mbuela,14.5500,-5.9170,Subdistrict,./0.png
14.8168855898056,-8.2830275021617,Kifafa,14.8170,-8.2830,Subdistrict,./0.png
15.5828869109937,-8.98302908554299,Samba Lukala,15.5830,-8.9830,Subdistrict,./0.png
13.8168837573856,-7.81702632957933,Bela Vista,13.8170,-7.8170,Subdistrict,./0.png
18.4668919646963,-11.6170352904122,Luando,18.4670,-11.6170,Subdistrict,./0.png
18.5328925293322,-10.4500329554687,Xassengue,18.5330,-10.4500,Subdistrict,./0.png
17.5498897107923,-12.4000364931369,Ringoma,17.5500,-12.4000,Subdistrict,./0.png
17.6998898992327,-12.7000371476605,Umpulo,17.7000,-12.7000,Subdistrict,./0.png
15.1328822411129,-17.0830442296418,Ombala yo Mungu,15.1330,-17.0830,Subdistrict,./0.png
14.1328836226979,-10.1830309031153,Mumbondo,14.1330,-10.1830,Subdistrict,./0.png
13.6998804669475,-15.1830399642834,Chibia,13.7000,-15.1830,Subdistrict,./0.png
13.829883378105,-9.165028881352,Kakulo-Kahango,13.8300,-9.1650,Subdistrict,./0.png
13.9168796093204,-17.317043935376,Chitado,13.9170,-17.3170,Subdistrict,./0.png
13.3668796247396,-15.5000403576653,Cainde,13.3670,-15.5000,Subdistrict,./0.png
17.3865993631942,-9.73069312852255,Moma,17.3867,-9.7307,Subdistrict,./0.png
14.9168861627864,-6.85002475700093,Lemboa,14.9170,-6.8500,Subdistrict,./0.png
13.9498818165725,-13.5670371357354,Chongoroi,13.9500,-13.5670,Subdistrict,./0.png
20.0328941463509,-14.4330416294271,Kangumbe,20.0330,-14.4330,Subdistrict,./0.png
17.299888511525,-13.9000393284347,Mumbu,17.3000,-13.9000,Subdistrict,./0.png
16.1328863706438,-13.2830376070805,Hungulo,16.1330,-13.2830,Subdistrict,./0.png
13.9828811517263,-14.9670397200908,Kapunda Kavilongo,13.9830,-14.9670,Subdistrict,./0.png
15.4668873940854,-6.23302367635119,Beu,15.4670,-6.2330,Subdistrict,./0.png
20.7998960793432,-13.9170409118953,Sessa,20.8000,-13.9170,Subdistrict,./0.png
14.4828835701049,-12.0670345837225,Chila,14.4830,-12.0670,Subdistrict,./0.png
13.0828796323597,-14.4830383770228,Kaitou,13.0830,-14.4830,Subdistrict,./0.png
14.1498830152798,-11.8170339769555,Gungo,14.1500,-11.8170,Subdistrict,./0.png
14.6668849039377,-9.53302985339163,Danje - ia - Menha,14.6670,-9.5330,Subdistrict,./0.png
16.8277299155805,-13.0529924689424,Kachingues,16.8278,-13.0530,Subdistrict,./0.png
16.4328870744202,-13.100037387752,Chinhama,16.4330,-13.1000,Subdistrict,./0.png
21.5498997203089,-8.16702907485945,Luia,21.5500,-8.1670,Subdistrict,./0.png
